58P/Jackson-Neujmin,e,13.1076,159.0769,200.4782,4.085274,0.1193637,0.66277886,45.0601,06/09.0/2021,2000,g 14.1,4.0
# From MPEC 2021-F20
59P/Kearns-Kwee,e,9.3413,312.8335,127.5424,4.487273,0.1036884,0.47510445,103.3327,06/09.0/2021,2000,g  7.0,6.0
# From MPEC 2021-F20
60P/Tsuchinshan,e,3.5903,267.5497,216.9499,3.522930,0.1490555,0.53494836,135.9792,06/09.0/2021,2000,g 11.5,6.0
# From MPEC 2015-Q71
61P/Shajn-Schaldach,e,5.9988,162.9775,221.8341,3.686752,0.1392317,0.42390868,290.0633,06/09.0/2021,2000,g  6.0,10.0
# From MPC109147
62P/Tsuchinshan,e,4.7652,69.5152,46.9369,3.352732,0.1605484,0.62972986,211.1485,06/09.0/2021,2000,g  8.0,10.0
# From MPC 84320
63P/Wild,e,19.7288,358.0186,169.1009,5.606607,0.0742427,0.64883171,221.8940,06/09.0/2021,2000,g 10.5,6.0
# From MPEC 2021-F20
64P/Swift-Gehrels,e,8.9500,299.9947,97.0718,4.453719,0.1048624,0.68794670,99.3885,06/09.0/2021,2000,g 13.4,4.0
# From MPEC 2021-F20
65P/Gunn,e,9.1795,62.0183,213.8744,3.885895,0.1286671,0.24943437,171.1624,06/09.0/2021,2000,g 11.2,4.0
# From MPEC 2021-F20
66P/duToit,e,18.6498,21.8314,257.3789,6.066484,0.0659627,0.78673005,73.6736,06/09.0/2021,2000,g 15.0,4.0
# From MPC 89011
67P/Churyumov-Gerasimenko,e,3.8711,36.3379,22.1193,3.457538,0.1533040,0.64985695,337.6114,06/09.0/2021,2000,g 11.0,4.0
# From MPC 75716
68P/Klemola,e,11.1102,175.0625,153.1355,4.953414,0.0894020,0.63764635,51.6620,06/09.0/2021,2000,g 10.0,4.0
# From MPC114607
69P/Taylor,e,22.0339,104.8257,343.4484,3.887443,0.1285903,0.41310415,104.6580,06/09.0/2021,2000,g  9.5,12.0
# From MPEC 2021-BE3
70P/Kojima,e,6.5982,119.2687,1.8384,3.676875,0.1397931,0.45362170,339.4301,06/09.0/2021,2000,g 11.0,6.0
# From MPC107051
71P/Clark,e,9.4381,59.4172,209.0494,3.138332,0.1772784,0.49395524,255.1355,06/09.0/2021,2000,g  9.8,6.0
# From MPC 89011
72P/Denning-Fujikawa,e,10.9413,26.6915,346.6882,4.310760,0.1101218,0.81840260,278.8405,06/09.0/2021,2000,g 17.5,10.0
# From MPC106348
73P/Schwassmann-Wachmann,e,11.2292,69.6301,199.4673,3.092909,0.1811979,0.68552419,279.7945,06/09.0/2021,2000,g 11.5,6.0
# From MPC106348
73P-T/Schwassmann-Wachmann,e,11.2313,69.6327,199.4487,3.094473,0.1810607,0.68572673,279.5837,06/09.0/2021,2000,g 11.5,6.0
# From MPEC 2021-BE3
74P/Smirnova-Chernykh,e,6.1834,72.5481,105.6027,4.316041,0.1099197,0.14866983,125.4074,06/09.0/2021,2000,g  5.0,6.0
# From MPEC 2021-F20
76P/West-Kohoutek-Ikemura,e,30.4597,84.1163,359.9704,3.472656,0.1523040,0.53812955,90.1557,06/09.0/2021,2000,g 15.5,4.0
# From MPC100283
77P/Longmore,e,24.3191,14.7818,196.8350,3.621842,0.1429913,0.35203886,265.1481,06/09.0/2021,2000,g  7.0,8.0
# From MPEC 2016-U66
78P/Gehrels,e,6.2514,210.5195,192.6297,3.738815,0.1363337,0.46205404,108.8220,06/09.0/2021,2000,g  9.0,4.0
# From MPC 94675
79P/du Toit-Hartley,e,3.1479,280.5321,281.7981,2.942909,0.1952265,0.61884494,195.2756,06/09.0/2021,2000,g 16.0,4.0
# From MPEC 2014-P41
80P/Peters-Hartley,e,29.9307,259.8161,339.2517,4.024361,0.1220840,0.59881233,293.1219,06/09.0/2021,2000,g  9.0,4.0
# From MPC105241
81P/Wild,e,3.2368,136.0982,41.6809,3.451643,0.1536969,0.53704502,274.7364,06/09.0/2021,2000,g  7.0,6.0
# From MPEC 2020-FB5
84P/Giclas,e,7.5518,108.1736,281.5732,3.549074,0.1474115,0.51571839,54.5626,06/09.0/2021,2000,g  9.5,8.0
# From MPC109147
86P/Wild,e,15.4741,72.3602,179.3784,3.602437,0.1441483,0.37243084,324.8963,06/09.0/2021,2000,g 11.0,6.0
# From MPEC 2020-SI8
87P/Bus,e,2.6060,181.7621,25.2153,3.444944,0.1541455,0.39018807,60.9021,06/09.0/2021,2000,g  7.2,10.0
# From MPEC 2021-F20
88P/Howell,e,4.3837,56.6795,235.9039,3.105025,0.1801385,0.56423454,46.0115,06/09.0/2021,2000,g 12.4,4.0
# From MPC100283
89P/Russell,e,12.0693,41.3811,250.3416,3.753961,0.1355094,0.40858287,221.6489,06/09.0/2021,2000,g 11.5,6.0
# From MPC107051
90P/Gehrels,e,9.6467,13.2058,29.0662,6.052780,0.0661869,0.51012201,96.0113,06/09.0/2021,2000,g  8.5,6.0
# From MPC105241
91P/Russell,e,14.0866,247.8150,354.8700,3.893965,0.1282673,0.33117872,27.1135,06/09.0/2021,2000,g  7.5,6.0
# From MPEC 2014-J58
92P/Sanguin,e,19.4959,181.3693,163.7500,5.344374,0.0797735,0.66090494,182.5661,06/09.0/2021,2000,g 12.0,6.0
# From NK 2707
93P/Lovas,e,12.2034,339.6460,74.8136,4.382814,0.1074174,0.61257162,167.6822,06/09.0/2021,2000,g  9.0,4.0
# From MPEC 2020-W26
94P/Russell,e,6.1880,70.8587,92.4630,3.507355,0.1500495,0.36489763,253.2493,06/09.0/2021,2000,g  9.0,6.0
# From MPC 75717
95P/Chiron,e,6.9304,209.2732,339.7141,13.70018,0.0194363,0.37730018,180.2565,06/09.0/2021,2000,g  6.5,2.0
# From MPEC 2017-T14
96P/Machholz,e,57.5916,93.9986,14.7389,3.028208,0.1870361,0.96159046,247.5452,06/09.0/2021,2000,g  9.0,4.0
# From MPC 77020
97P/Metcalf-Brewington,e,17.9474,184.0779,229.9075,4.764211,0.0947802,0.46044385,336.1805,06/09.0/2021,2000,g  5.5,6.0
# From MPEC 2013-H38
98P/Takamizawa,e,10.5606,114.7093,157.9017,3.800003,0.1330541,0.56242186,20.6366,06/09.0/2021,2000,g  9.0,8.0
# From MPEC 2021-L04
99P/Kowal,e,4.3388,28.1063,174.9616,6.109687,0.0652643,0.22976326,339.9042,06/09.0/2021,2000,g  4.5,6.0
# From MPEC 2013-O31
100P/Hartley,e,25.5651,37.6999,181.9898,3.432355,0.1549943,0.41233175,293.6656,06/09.0/2021,2000,g  9.0,4.0
# From MPEC 2020-FB5
101P/Chernykh,e,5.0527,116.2289,277.7041,5.803072,0.0705046,0.59595588,36.1958,06/09.0/2021,2000,g 10.0,4.8
# From MPC 86232
102P/Shoemaker,e,25.8849,339.3661,20.5443,3.812720,0.1323890,0.45709047,18.2165,06/09.0/2021,2000,g  6.5,8.0
# From MPEC 2018-HA5
103P/Hartley,e,13.6011,219.7317,181.2833,3.476119,0.1520765,0.69324302,229.8448,06/09.0/2021,2000,g  8.5,8.0
# From MPC100283
104P/Kowal,e,5.7193,207.4011,227.1085,3.207660,0.1715622,0.66555601,322.9236,06/09.0/2021,2000,g 16.0,4.0
# From MPC109147
105P/Singer Brewster,e,9.1705,192.4119,46.4858,3.467367,0.1526527,0.40947248,157.9002,06/09.0/2021,2000,g 11.5,6.0
# From MPC 92276
106P/Schuster,e,19.5362,48.8867,353.6633,3.762532,0.1350467,0.59372048,350.4437,06/09.0/2021,2000,g 14.0,4.8
# From MPEC 2015-M77
107P/Wilson-Harrington,e,2.7987,266.7917,95.4078,2.625237,0.2317134,0.63156435,257.6510,06/09.0/2021,2000,g  9.0,4.0
# From MPC 89313
108P/Ciffreo,e,11.4371,50.2931,354.4096,3.738579,0.1363466,0.55590399,347.3093,06/09.0/2021,2000,g  8.0,12.0
# From  105, 420
109P/Swift-Tuttle,e,113.9904,139.0367,152.9131,26.14130,0.0073742,0.96286724,76.8029,06/09.0/2021,2000,g  4.0,6.0
# From MPEC 2020-W26
110P/Hartley,e,11.7072,287.5345,167.4534,3.601348,0.1442137,0.31811531,341.0598,06/09.0/2021,2000,g  1.0,12.0
# From MPC 75718
111P/Helin-Roman-Crockett,e,4.2270,89.7668,0.9990,4.147211,0.1166997,0.10599300,359.2195,06/09.0/2021,2000,g  5.0,8.0
# From MPEC 2021-F20
112P/Urata-Niijima,e,24.1959,31.8359,21.4840,3.525661,0.1488824,0.58989547,72.5073,06/09.0/2021,2000,g 15.3,4.0
# From MPEC 2015-E14
113P/Spitaler,e,5.2946,306.7070,115.3620,3.699271,0.1385255,0.42096990,310.5535,06/09.0/2021,2000,g 13.5,4.0
# From MPEC 2021-J28
114P/Wiseman-Skiff,e,18.2733,271.0506,172.7743,3.545339,0.1476446,0.55475146,75.5886,06/09.0/2021,2000,g 11.5,6.0
# From MPEC 2020-SI8
115P/Maury,e,11.6776,176.0102,120.9767,4.272323,0.1116112,0.51859626,35.0889,06/09.0/2021,2000,g 10.5,6.0
# From MPC106348
116P/Wild,e,3.6034,20.9851,173.3388,3.489835,0.1511809,0.37063256,299.0702,06/09.0/2021,2000,g  2.5,10.0
# From MPEC 2021-F20
117P/Helin-Roman-Alu,e,8.7026,58.8428,222.8487,4.084707,0.1193886,0.25570023,313.0384,06/09.0/2021,2000,g 10.8,4.0
# From MPC 95735
118P/Shoemaker-Levy,e,10.0927,142.1121,314.4062,3.361716,0.1599052,0.45520126,274.9707,06/09.0/2021,2000,g 12.0,4.0
# From MPC 84628
119P/Parker-Hartley,e,7.4023,104.6784,321.7194,3.817003,0.1321662,0.39003481,303.4376,06/09.0/2021,2000,g  3.5,8.0
# From MPEC 2020-SI8
120P/Mueller,e,8.4900,358.6743,36.5613,3.961427,0.1250048,0.37450093,4.1060,06/09.0/2021,2000,g 12.0,4.0
# From MPEC 2020-SI8
121P/Shoemaker-Holt,e,20.1630,94.1272,11.3803,4.584743,0.1003995,0.18563491,284.8712,06/09.0/2021,2000,g  6.5,8.0
# From MPC 75718
122P/de Vico,e,84.9252,79.5564,13.0069,17.62680,0.0133181,0.96225586,125.2286,06/09.0/2021,2000,g  7.5,5.2
# From MPEC 2021-F20
123P/West-Hartley,e,15.2925,46.1646,103.8592,3.874190,0.1292506,0.44701476,110.5179,06/09.0/2021,2000,g 12.2,4.0
# From MPEC 2021-F20
124P/Mrkos,e,31.5236,0.3255,183.9870,3.320922,0.1628606,0.50349742,66.4437,06/09.0/2021,2000,g 15.2,4.0
# From MPEC 2015-M77
125P/Spacewatch,e,9.9866,153.1493,87.2395,3.125924,0.1783349,0.51267194,181.2897,06/09.0/2021,2000,g  9.0,4.0
# From MPC 66205
126P/IRAS,e,45.8698,357.8634,356.5257,5.639889,0.0735865,0.69628312,304.3439,06/09.0/2021,2000,g  9.0,4.0
# From MPC 84321
127P/Holt-Olmstead,e,14.2965,13.6339,6.4648,3.451505,0.1537062,0.35990192,294.2080,06/09.0/2021,2000,g 11.0,6.0
# From MPC 89014
128P/Shoemaker-Holt,e,4.3676,214.2983,210.3027,4.492125,0.1035205,0.32075825,166.8457,06/09.0/2021,2000,g  8.5,4.0
# From MPEC 2019-TG9
129P/Shoemaker-Levy,e,3.4423,184.8811,307.8135,4.283532,0.1111734,0.08404770,299.7390,06/09.0/2021,2000,g 11.0,4.0
# From MPC 78188
130P/McNaught-Hughes,e,6.0627,70.2253,246.0112,3.383804,0.1583420,0.46136709,195.2837,06/09.0/2021,2000,g 10.0,6.0
# From MPC102101
131P/Mueller,e,7.3555,214.1571,179.0267,3.680649,0.1395781,0.34393991,120.9659,06/09.0/2021,2000,g 11.0,4.0
# From MPEC 2020-HN5
132P/Helin-Roman-Alu,e,5.3817,174.0008,216.3440,3.888264,0.1285495,0.56492002,339.8007,06/09.0/2021,2000,g 11.0,6.0
# From MPC 94676
133P/Elst-Pizarro,e,1.3892,160.1077,131.8336,3.164750,0.1750632,0.15692779,173.5204,06/09.0/2021,2000,g 15.4,2.0
# From MPC 89012
134P/Kowal-Vavrova,e,4.3397,202.0724,18.8876,6.260390,0.0629219,0.58603256,162.2238,06/09.0/2021,2000,g 11.5,4.0
# From MPEC 2021-F20
135P/Shoemaker-Levy,e,6.0620,213.0286,22.2971,3.803097,0.1328918,0.29527899,319.8348,06/09.0/2021,2000,g  7.0,8.0
# From MPEC 2020-W26
136P/Mueller,e,9.4244,137.4486,224.9054,4.193377,0.1147779,0.29277450,210.4080,06/09.0/2021,2000,g 11.0,4.0
# From MPEC 2021-J28
137P/Shoemaker-Levy,e,4.8539,233.0302,141.0357,4.520615,0.1025434,0.57351810,93.1352,06/09.0/2021,2000,g 11.0,4.0
# From MPEC 2016-U66
